NORAD_CAT_ID,OBJECT_NAME,OBJECT_TYPE,EPOCH,MEAN_MOTION,ECCENTRICITY,INCLINATION,RA_OF_ASC_NODE,ARG_OF_PERICENTER,MEAN_ANOMALY,BSTAR,MEAN_MOTION_DOT,MEAN_MOTION_DDOT,TLE_LINE0,TLE_LINE1,TLE_LINE2,SEMIMAJOR_AXIS,PERIOD,APOGEE,PERIGEE,DECAYED
55784.0,STARLINK-5797,PAYLOAD,2023-04-18 04:19:43,15.69933983,0.0003084,69.9988,27.4799,252.64,107.4458,8.2311e-06,7.78e-06,0.0,0 STARLINK-5797,1 55784U 23028AV  23108.18036419  .00000778  00000-0  82311-5 0  9992,2 55784  69.9988  27.4799 0003084 252.6400 107.4458 15.69933983  7802,6737.223,91.724,361.166,357.01,0.0
55784.0,STARLINK-5797,PAYLOAD,2023-04-18 18:05:30,15.69924804,0.0002902,69.9993,25.8694,254.5936,105.4939,5.0443e-06,3.94e-06,0.0,0 STARLINK-5797,1 55784U 23028AV  23108.75382204  .00000394  00000-0  50443-5 0  9996,2 55784  69.9993  25.8694 0002902 254.5936 105.4939 15.69924804  7890,6737.249,91.724,361.069,357.159,0.0
55784.0,STARLINK-5797,PAYLOAD,2023-04-19 04:47:45,15.69930625,0.0002958,69.9992,24.6145,260.2044,99.8818,2.1772e-05,2.407e-05,0.0,0 STARLINK-5797,1 55784U 23028AV  23109.19983271  .00002407  00000-0  21772-4 0  9995,2 55784  69.9992  24.6145 0002958 260.2044  99.8818 15.69930625  7960,6737.232,91.724,361.09,357.105,0.0
55784.0,STARLINK-5797,PAYLOAD,2023-04-20 03:44:03,15.6991591,0.000306,69.9993,21.927,257.6979,102.3875,1.5599e-05,1.663e-05,0.0,0 STARLINK-5797,1 55784U 23028AV  23110.15559239  .00001663  00000-0  15599-4 0  9999,2 55784  69.9993  21.9270 0003060 257.6979 102.3875 15.69915910  8113,6737.275,91.725,361.201,357.078,0.0
55784.0,STARLINK-5797,PAYLOAD,2023-04-21 02:40:19,15.69934621,0.000334,69.9989,19.2399,261.2815,98.8002,1.4445e-05,1.525e-05,0.0,0 STARLINK-5797,1 55784U 23028AV  23111.11133146  .00001525  00000-0  14445-4 0  9997,2 55784  69.9989  19.2399 0003340 261.2815  98.8002 15.69934621  8268,6737.221,91.724,361.336,356.836,0.0
55784.0,STARLINK-5797,PAYLOAD,2023-04-21 17:57:51,15.69921741,0.0003569,69.999,17.4484,267.6169,92.4618,7.6741e-06,7.1e-06,0.0,0 STARLINK-5797,1 55784U 23028AV  23111.74850815  .00000710  00000-0  76741-5 0  9998,2 55784  69.9990  17.4484 0003569 267.6169  92.4618 15.69921741  8363,6737.258,91.724,361.527,356.718,0.0
55784.0,STARLINK-5797,PAYLOAD,2023-04-21 19:29:36,15.69921319,0.0003663,69.9989,17.2693,266.1501,93.9276,6.9741e-06,6.26e-06,0.0,0 STARLINK-5797,1 55784U 23028AV  23111.81222519  .00000626  00000-0  69741-5 0  9998,2 55784  69.9989  17.2693 0003663 266.1501  93.9276 15.69921319  8378,6737.259,91.724,361.592,356.656,0.0
55784.0,STARLINK-5797,PAYLOAD,2023-04-22 16:54:08,15.69920409,0.0003541,69.9982,14.7605,261.3915,98.6879,-9.1552e-06,-1.313e-05,0.0,0 STARLINK-5797,1 55784U 23028AV  23112.70426252 -.00001313  00000-0 -91552-5 0  9998,2 55784  69.9982  14.7605 0003541 261.3915  98.6879 15.69920409  8513,6737.262,91.724,361.512,356.741,0.0
55784.0,STARLINK-5797,PAYLOAD,2023-04-22 19:57:38,15.69918259,0.0003669,69.9985,14.4032,260.4832,99.595,-1.3276e-05,-1.809e-05,0.0,0 STARLINK-5797,1 55784U 23028AV  23112.83169814 -.00001809  00000-0 -13276-4 0  9996,2 55784  69.9985  14.4032 0003669 260.4832  99.5950 15.69918259  8538,6737.268,91.725,361.605,356.661,0.0
55784.0,STARLINK-5797,PAYLOAD,2023-04-23 02:04:38,15.69922239,0.0003857,69.9967,13.6832,268.4298,91.6456,-1.265e-06,-3.65e-06,0.0,0 STARLINK-5797,1 55784U 23028AV  23113.08656096 -.00000365  00000-0 -12650-5 0  9999,2 55784  69.9967  13.6832 0003857 268.4298  91.6456 15.69922239  8571,6737.256,91.724,361.72,356.523,0.0
55784.0,STARLINK-5797,PAYLOAD,2023-04-23 17:22:09,15.69931813,0.0003679,70.0006,11.898,260.8017,99.2763,1.6515e-05,1.774e-05,0.0,0 STARLINK-5797,1 55784U 23028AV  23113.72371656  .00001774  00000-0  16515-4 0  9992,2 55784  70.0006  11.8980 0003679 260.8017  99.2763 15.69931813  8673,6737.229,91.724,361.573,356.615,0.0
55784.0,STARLINK-5797,PAYLOAD,2023-04-24 01:00:53,15.69943136,0.0003176,69.9996,10.999,258.6707,101.4132,2.9157e-05,3.297e-05,0.0,0 STARLINK-5797,1 55784U 23028AV  23114.04229099  .00003297  00000-0  29157-4 0  9999,2 55784  69.9996  10.9990 0003176 258.6707 101.4132 15.69943136  8725,6737.197,91.723,361.201,356.922,0.0
55784.0,STARLINK-5797,PAYLOAD,2023-04-25 03:00:43,15.69890158,0.0003259,70.0008,7.9553,261.5627,98.52,-4.7736e-05,-5.94e-05,0.0,0 STARLINK-5797,1 55784U 23028AV  23115.12550711 -.00005940  00000-0 -47736-4 0  9999,2 55784  70.0008   7.9553 0003259 261.5627  98.5200 15.69890158  8894,6737.348,91.726,361.409,357.018,0.0
55784.0,STARLINK-5797,PAYLOAD,2023-04-26 01:56:59,15.69943875,0.0002858,69.9986,5.2671,273.6867,86.4002,1.6117e-05,1.727e-05,0.0,0 STARLINK-5797,1 55784U 23028AV  23116.08124181  .00001727  00000-0  16117-4 0  9999,2 55784  69.9986   5.2671 0002858 273.6867  86.4002 15.69943875  9041,6737.195,91.723,360.985,357.134,0.0
55784.0,STARLINK-5797,PAYLOAD,2023-04-26 23:21:30,15.69928263,0.000315,69.9978,2.7588,267.609,92.4745,6.0084e-05,7.019e-05,0.0,0 STARLINK-5797,1 55784U 23028AV  23116.97327196  .00007019  00000-0  60084-4 0  9990,2 55784  69.9978   2.7588 0003150 267.6090  92.4745 15.69928263  9188,6737.239,91.724,361.226,356.982,0.0
55784.0,STARLINK-5797,PAYLOAD,2023-04-27 16:10:48,15.6994105,0.0002919,69.9991,0.7864,269.6908,90.3953,-1.2751e-05,-1.746e-05,0.0,0 STARLINK-5797,1 55784U 23028AV  23117.67416679 -.00001746  00000-0 -12751-4 0  9994,2 55784  69.9991   0.7864 0002919 269.6908  90.3953 15.69941050  9299,6737.203,91.723,361.034,357.101,0.0
55784.0,STARLINK-5797,PAYLOAD,2023-04-28 09:00:05,15.69924021,0.0002687,69.9976,358.8203,271.3704,88.7184,-2.8803e-05,-3.674e-05,0.0,0 STARLINK-5797,1 55784U 23028AV  23118.37505943 -.00003674  00000-0 -28803-4 0  9992,2 55784  69.9976 358.8203 0002687 271.3704  88.7184 15.69924021  9401,6737.251,91.724,360.927,357.306,0.0
55784.0,STARLINK-5797,PAYLOAD,2023-04-29 01:49:20,15.69913859,0.000343,69.9968,356.8517,255.0414,105.0402,-5.1492e-06,-8.32e-06,0.0,0 STARLINK-5797,1 55784U 23028AV  23119.07593482 -.00000832  00000-0 -51492-5 0  9999,2 55784  69.9968 356.8517 0003430 255.0414 105.0402 15.69913859  9517,6737.28,91.725,361.456,356.835,0.0
55784.0,STARLINK-5797,PAYLOAD,2023-04-29 17:06:51,15.69924342,0.0003341,69.9961,355.059,263.0369,97.0447,9.6368e-07,-9.7e-07,0.0,0 STARLINK-5797,1 55784U 23028AV  23119.71309535 -.00000097  00000-0  96368-6 0  9998,2 55784  69.9961 355.0590 0003341 263.0369  97.0447 15.69924342  9610,6737.25,91.724,361.366,356.865,0.0
55784.0,STARLINK-5797,PAYLOAD,2023-04-30 02:17:23,15.69912199,0.0002864,69.9995,353.9787,279.4997,80.5874,-6.5642e-06,-1.001e-05,0.0,0 STARLINK-5797,1 55784U 23028AV  23120.09540573 -.00001001  00000-0 -65642-5 0  9997,2 55784  69.9995 353.9787 0002864 279.4997  80.5874 15.69912199  9673,6737.285,91.725,361.08,357.221,0.0
55784.0,STARLINK-5797,PAYLOAD,2023-05-01 01:13:39,15.69916528,0.0003018,69.9988,351.2922,282.1559,77.9298,1.3477e-05,1.408e-05,0.0,0 STARLINK-5797,1 55784U 23028AV  23121.05115424  .00001408  00000-0  13477-4 0  9994,2 55784  69.9988 351.2922 0003018 282.1559  77.9298 15.69916528  9821,6737.273,91.725,361.171,357.105,0.0
55784.0,STARLINK-5797,PAYLOAD,2023-05-01 18:02:55,15.69928636,0.0003358,69.998,349.3216,277.8084,82.2731,8.4321e-06,8.01e-06,0.0,0 STARLINK-5797,1 55784U 23028AV  23121.75203194  .00000801  00000-0  84321-5 0  9996,2 55784  69.9980 349.3216 0003358 277.8084  82.2731 15.69928636  9934,6737.238,91.724,361.366,356.841,0.0
55784.0,STARLINK-5797,PAYLOAD,2023-05-02 01:41:41,15.69929509,0.0003026,69.9985,348.4271,275.4335,84.6515,1.0772e-05,1.083e-05,0.0,0 STARLINK-5797,1 55784U 23028AV  23122.07061443  .00001083  00000-0  10772-4 0  9992,2 55784  69.9985 348.4271 0003026 275.4335  84.6515 15.69929509  9986,6737.236,91.724,361.139,357.062,0.0
55784.0,STARLINK-5797,PAYLOAD,2023-05-02 18:30:57,15.69921616,0.0002963,69.9982,346.4571,259.6138,100.4724,7.6256e-06,7.04e-06,0.0,0 STARLINK-5797,1 55784U 23028AV  23122.77150345  .00000704  00000-0  76256-5 0  9998,2 55784  69.9982 346.4571 0002963 259.6138 100.4724 15.69921616 10092,6737.258,91.724,361.12,357.127,0.0
55784.0,STARLINK-5797,PAYLOAD,2023-05-02 21:34:28,15.69919523,0.0002734,69.9986,346.1004,245.7251,114.3659,1.3027e-05,1.354e-05,0.0,0 STARLINK-5797,1 55784U 23028AV  23122.89893665  .00001354  00000-0  13027-4 0  9998,2 55784  69.9986 346.1004 0002734 245.7251 114.3659 15.69919523 10110,6737.264,91.724,360.971,357.287,0.0
55784.0,STARLINK-5797,PAYLOAD,2023-05-03 08:16:43,15.69941071,0.0003191,69.9971,344.8435,281.3851,78.6986,-2.6948e-05,-3.454e-05,0.0,0 STARLINK-5797,1 55784U 23028AV  23123.34494951 -.00003454  00000-0 -26948-4 0  9995,2 55784  69.9971 344.8435 0003191 281.3851  78.6986 15.69941071 10182,6737.203,91.723,361.217,356.918,0.0
55784.0,STARLINK-5797,PAYLOAD,2023-05-03 14:23:44,15.69927231,0.0003543,69.9971,344.1269,268.1527,91.9263,9.6216e-07,-9.7e-07,0.0,0 STARLINK-5797,1 55784U 23028AV  23123.59981934 -.00000097  00000-0  96216-6 0  9990,2 55784  69.9971 344.1269 0003543 268.1527  91.9263 15.69927231 10227,6737.242,91.724,361.494,356.72,0.0
55784.0,STARLINK-5797,PAYLOAD,2023-05-03 17:27:14,15.69929474,0.0003465,69.9974,343.7686,268.59,91.4899,5.8606e-06,4.92e-06,0.0,0 STARLINK-5797,1 55784U 23028AV  23123.72724991  .00000492  00000-0  58606-5 0  9991,2 55784  69.9974 343.7686 0003465 268.5900  91.4899 15.69929474 10243,6737.236,91.724,361.435,356.766,0.0
55784.0,STARLINK-5797,PAYLOAD,2023-05-04 01:05:59,15.69934749,0.0003021,69.9984,342.8745,263.7069,96.3783,8.8509e-06,8.52e-06,0.0,0 STARLINK-5797,1 55784U 23028AV  23124.04582818  .00000852  00000-0  88509-5 0  9992,2 55784  69.9984 342.8745 0003021 263.7069  96.3783 15.69934749 10293,6737.221,91.724,361.121,357.05,0.0
55784.0,STARLINK-5797,PAYLOAD,2023-05-04 17:55:16,15.69928597,0.0002803,69.9986,340.9024,271.9339,88.1536,-5.3215e-06,-8.52e-06,0.0,0 STARLINK-5797,1 55784U 23028AV  23124.74671982 -.00000852  00000-0 -53215-5 0  9998,2 55784  69.9986 340.9024 0002803 271.9339  88.1536 15.69928597 10404,6737.238,91.724,360.992,357.215,0.0
